start=new Date('2021-09-18T00:00:00.000Z').valueOf();
sats=[{"TLE_LINE1":"1 45194U 20012S   21260.50506874 -.00000720  00000-0 -29466-4 0  9996","OBJECT_TYPE":"PAYLOAD","DECAY_DATE":null,"NORAD_CAT_ID":"45194","MEAN_MOTION":"15.06388590","CLASSIFICATION_TYPE":"U","COUNTRY_CODE":"US","MEAN_MOTION_DOT":"-0.00000720","LAUNCH_DATE":"2020-02-17","BSTAR":"-0.00002946600000","FILE":"3118116","OBJECT_ID":"2020-012S","APOAPSIS":"548.672","INCLINATION":"53.0547","RCS_SIZE":"LARGE","PERIOD":"95.593","EPHEMERIS_TYPE":"0","MEAN_MOTION_DDOT":"0.0000000000000","SEMIMAJOR_AXIS":"6925.384","MEAN_ELEMENT_THEORY":"SGP4","PERIAPSIS":"545.825","REV_AT_EPOCH":"8842","ECCENTRICITY":"0.00020550","MEAN_ANOMALY":"295.4054","ELEMENT_SET_NO":"999","SITE":"AFETR","TLE_LINE2":"2 45194  53.0547 182.7620 0002055  64.7148 295.4054 15.06388590 88423","REF_FRAME":"TEME","GP_ID":"184910653","CENTER_NAME":"EARTH","ARG_OF_PERICENTER":"64.7148","TIME_SYSTEM":"UTC","RA_OF_ASC_NODE":"182.7620","OBJECT_NAME":"STARLINK-1240","EPOCH":"2021-09-17T12:07:17.939136"},{"SEMIMAJOR_AXIS":"6925.379","MEAN_MOTION_DDOT":"0.0000000000000","EPHEMERIS_TYPE":"0","ELEMENT_SET_NO":"999","ECCENTRICITY":"0.00016700","MEAN_ANOMALY":"288.6077","REV_AT_EPOCH":"8852","MEAN_ELEMENT_THEORY":"SGP4","PERIAPSIS":"546.087","GP_ID":"184910904","CENTER_NAME":"EARTH","TLE_LINE2":"2 45195  53.0535 182.8007 0001670  71.5093 288.6077 15.06390202 88521","REF_FRAME":"TEME","SITE":"AFETR","OBJECT_NAME":"STARLINK-1241","EPOCH":"2021-09-17T11:56:40.686432","RA_OF_ASC_NODE":"182.8007","TIME_SYSTEM":"UTC","ARG_OF_PERICENTER":"71.5093","DECAY_DATE":null,"NORAD_CAT_ID":"45195","TLE_LINE1":"1 45195U 20012T   21260.49769313  .00001159  00000-0  96748-4 0  9996","OBJECT_TYPE":"PAYLOAD","COUNTRY_CODE":"US","CLASSIFICATION_TYPE":"U","MEAN_MOTION":"15.06390202","OBJECT_ID":"2020-012T","FILE":"3118116","BSTAR":"0.00009674800000","LAUNCH_DATE":"2020-02-17","MEAN_MOTION_DOT":"0.00001159","PERIOD":"95.593","RCS_SIZE":"LARGE","INCLINATION":"53.0535","APOAPSIS":"548.400"},{"ARG_OF_PERICENTER":"65.5283","EPOCH":"2021-09-17T11:40:45.058368","OBJECT_NAME":"STARLINK-1244","TIME_SYSTEM":"UTC","RA_OF_ASC_NODE":"182.8473","REF_FRAME":"TEME","TLE_LINE2":"2 45196  53.0533 182.8473 0001851  65.5283 294.5899 15.06396165 88579","SITE":"AFETR","CENTER_NAME":"EARTH","GP_ID":"184909652","REV_AT_EPOCH":"8857","PERIAPSIS":"545.943","MEAN_ELEMENT_THEORY":"SGP4","ELEMENT_SET_NO":"999","ECCENTRICITY":"0.00018510","MEAN_ANOMALY":"294.5899","MEAN_MOTION_DDOT":"0.0000000000000","EPHEMERIS_TYPE":"0","SEMIMAJOR_AXIS":"6925.360","APOAPSIS":"548.507","PERIOD":"95.592","RCS_SIZE":"LARGE","INCLINATION":"53.0533","MEAN_MOTION_DOT":"-0.00000171","FILE":"3118116","OBJECT_ID":"2020-012U","BSTAR":"0.00000741010000","LAUNCH_DATE":"2020-02-17","CLASSIFICATION_TYPE":"U","MEAN_MOTION":"15.06396165","COUNTRY_CODE":"US","NORAD_CAT_ID":"45196","DECAY_DATE":null,"OBJECT_TYPE":"PAYLOAD","TLE_LINE1":"1 45196U 20012U   21260.48663262 -.00000171  00000-0  74101-5 0  9996"},{"RCS_SIZE":"LARGE","PERIOD":"95.592","INCLINATION":"53.0544","APOAPSIS":"548.469","FILE":"3118116","OBJECT_ID":"2020-012V","BSTAR":"0.00009935900000","LAUNCH_DATE":"2020-02-17","MEAN_MOTION_DOT":"0.00001198","COUNTRY_CODE":"US","CLASSIFICATION_TYPE":"U","MEAN_MOTION":"15.06395366","DECAY_DATE":null,"NORAD_CAT_ID":"45197","TLE_LINE1":"1 45197U 20012V   21260.47557141  .00001198  00000-0  99359-4 0  9994","OBJECT_TYPE":"PAYLOAD","OBJECT_NAME":"STARLINK-1269","EPOCH":"2021-09-17T11:24:49.369824","RA_OF_ASC_NODE":"182.8904","TIME_SYSTEM":"UTC","ARG_OF_PERICENTER":"70.4828","GP_ID":"184909902","CENTER_NAME":"EARTH","TLE_LINE2":"2 45197  53.0544 182.8904 0001793  70.4828 289.6354 15.06395366 88490","REF_FRAME":"TEME","SITE":"AFETR","ELEMENT_SET_NO":"999","ECCENTRICITY":"0.00017930","MEAN_ANOMALY":"289.6354","REV_AT_EPOCH":"8849","MEAN_ELEMENT_THEORY":"SGP4","PERIAPSIS":"545.986","SEMIMAJOR_AXIS":"6925.363","MEAN_MOTION_DDOT":"0.0000000000000","EPHEMERIS_TYPE":"0"},{"RCS_SIZE":"LARGE","PERIOD":"95.592","INCLINATION":"53.0553","APOAPSIS":"548.653","FILE":"3118116","BSTAR":"0.00006694400000","OBJECT_ID":"2020-012W","LAUNCH_DATE":"2020-02-17","MEAN_MOTION_DOT":"0.00000716","COUNTRY_CODE":"US","CLASSIFICATION_TYPE":"U","MEAN_MOTION":"15.06406267","NORAD_CAT_ID":"45198","DECAY_DATE":null,"OBJECT_TYPE":"PAYLOAD","TLE_LINE1":"1 45198U 20012W   21260.66539112  .00000716  00000-0  66944-4 0  9993","EPOCH":"2021-09-17T15:58:09.792768","OBJECT_NAME":"STARLINK-1154","RA_OF_ASC_NODE":"162.0508","TIME_SYSTEM":"UTC","ARG_OF_PERICENTER":"64.3890","CENTER_NAME":"EARTH","GP_ID":"184911153","REF_FRAME":"TEME","TLE_LINE2":"2 45198  53.0553 162.0508 0002106  64.3890 295.7316 15.06406267 88771","SITE":"AFETR","ELEMENT_SET_NO":"999","ECCENTRICITY":"0.00021060","MEAN_ANOMALY":"295.7316","REV_AT_EPOCH":"8877","PERIAPSIS":"545.736","MEAN_ELEMENT_THEORY":"SGP4","SEMIMAJOR_AXIS":"6925.329","EPHEMERIS_TYPE":"0","MEAN_MOTION_DDOT":"0.0000000000000"},{"APOAPSIS":"548.591","INCLINATION":"53.0548","RCS_SIZE":"LARGE","PERIOD":"95.593","MEAN_MOTION_DOT":"0.00001181","LAUNCH_DATE":"2020-02-17","FILE":"3118116","OBJECT_ID":"2020-012X","BSTAR":"0.00009821700000","MEAN_MOTION":"15.06393089","CLASSIFICATION_TYPE":"U","COUNTRY_CODE":"US","OBJECT_TYPE":"PAYLOAD","TLE_LINE1":"1 45199U 20012X   21260.47004856  .00001181  00000-0  98217-4 0  9990","NORAD_CAT_ID":"45199","DECAY_DATE":null,"ARG_OF_PERICENTER":"63.3745","RA_OF_ASC_NODE":"162.9292","TIME_SYSTEM":"UTC","EPOCH":"2021-09-17T11:16:52.195584","OBJECT_NAME":"STARLINK-1197","SITE":"AFETR","REF_FRAME":"TEME","TLE_LINE2":"2 45199  53.0548 162.9292 0001959  63.3745 296.7445 15.06393089 88803","CENTER_NAME":"EARTH","GP_ID":"184911404","PERIAPSIS":"545.878","MEAN_ELEMENT_THEORY":"SGP4","REV_AT_EPOCH":"8880","MEAN_ANOMALY":"296.7445","ECCENTRICITY":"0.00019590","ELEMENT_SET_NO":"999","MEAN_MOTION_DDOT":"0.0000000000000","EPHEMERIS_TYPE":"0","SEMIMAJOR_AXIS":"6925.370"},{"DECAY_DATE":null,"NORAD_CAT_ID":"45201","TLE_LINE1":"1 45201U 20012Z   21260.67646202 -.00000705  00000-0 -28399-4 0  9990","OBJECT_TYPE":"PAYLOAD","CLASSIFICATION_TYPE":"U","MEAN_MOTION":"15.06394706","COUNTRY_CODE":"US","MEAN_MOTION_DOT":"-0.00000705","BSTAR":"-0.00002839900000","FILE":"3118116","OBJECT_ID":"2020-012Z","LAUNCH_DATE":"2020-02-17","APOAPSIS":"548.681","RCS_SIZE":"LARGE","PERIOD":"95.592","INCLINATION":"53.0543","MEAN_MOTION_DDOT":"0.0000000000000","EPHEMERIS_TYPE":"0","SEMIMAJOR_AXIS":"6925.365","REV_AT_EPOCH":"8883","MEAN_ELEMENT_THEORY":"SGP4","PERIAPSIS":"545.778","ELEMENT_SET_NO":"999","ECCENTRICITY":"0.00020960","MEAN_ANOMALY":"292.6968","TLE_LINE2":"2 45201  53.0543 161.9966 0002096  67.4242 292.6968 15.06394706 88834","REF_FRAME":"TEME","SITE":"AFETR","GP_ID":"184910152","CENTER_NAME":"EARTH","ARG_OF_PERICENTER":"67.4242","OBJECT_NAME":"STARLINK-1199","EPOCH":"2021-09-17T16:14:06.318528","TIME_SYSTEM":"UTC","RA_OF_ASC_NODE":"161.9966"},{"COUNTRY_CODE":"US","CLASSIFICATION_TYPE":"U","MEAN_MOTION":"15.08030950","NORAD_CAT_ID":"45202","DECAY_DATE":null,"OBJECT_TYPE":"PAYLOAD","TLE_LINE1":"1 45202U 20012AA  21260.85845898  .00003251  00000-0  22710-3 0  9990","PERIOD":"95.489","RCS_SIZE":"LARGE","INCLINATION":"52.9822","APOAPSIS":"543.577","FILE":"3118116","OBJECT_ID":"2020-012AA","BSTAR":"0.00022710000000","LAUNCH_DATE":"2020-02-17","MEAN_MOTION_DOT":"0.00003251","ELEMENT_SET_NO":"999","MEAN_ANOMALY":"278.5561","ECCENTRICITY":"0.00019610","REV_AT_EPOCH":"8864","PERIAPSIS":"540.862","MEAN_ELEMENT_THEORY":"SGP4","SEMIMAJOR_AXIS":"6920.354","EPHEMERIS_TYPE":"0","MEAN_MOTION_DDOT":"0.0000000000000","EPOCH":"2021-09-17T20:36:10.855872","OBJECT_NAME":"STARLINK-1203","RA_OF_ASC_NODE":"176.8813","TIME_SYSTEM":"UTC","ARG_OF_PERICENTER":"81.5649","CENTER_NAME":"EARTH","GP_ID":"184910402","REF_FRAME":"TEME","TLE_LINE2":"2 45202  52.9822 176.8813 0001961  81.5649 278.5561 15.08030950 88648","SITE":"AFETR"},{"CENTER_NAME":"EARTH","GP_ID":"184910654","SITE":"AFETR","REF_FRAME":"TEME","TLE_LINE2":"2 45203  53.0206 156.2398 0001020 353.3757   6.7228 15.31217769 88847","RA_OF_ASC_NODE":"156.2398","TIME_SYSTEM":"UTC","EPOCH":"2021-09-17T19:02:41.354016","OBJECT_NAME":"STARLINK-1204","ARG_OF_PERICENTER":"353.3757","SEMIMAJOR_AXIS":"6850.315","MEAN_MOTION_DDOT":"0.0000000000000","EPHEMERIS_TYPE":"0","MEAN_ANOMALY":"6.7228","ECCENTRICITY":"0.00010200","ELEMENT_SET_NO":"999","PERIAPSIS":"471.481","MEAN_ELEMENT_THEORY":"SGP4","REV_AT_EPOCH":"8884","LAUNCH_DATE":"2020-02-17","FILE":"3118116","BSTAR":"0.00164420000000","OBJECT_ID":"2020-012AB","MEAN_MOTION_DOT":"0.00050241","INCLINATION":"53.0206","RCS_SIZE":"LARGE","PERIOD":"94.043","APOAPSIS":"472.879","OBJECT_TYPE":"PAYLOAD","TLE_LINE1":"1 45203U 20012AB  21260.79353419  .00050241  00000-0  16442-2 0  9992","NORAD_CAT_ID":"45203","DECAY_DATE":null,"COUNTRY_CODE":"US","MEAN_MOTION":"15.31217769","CLASSIFICATION_TYPE":"U"},{"REV_AT_EPOCH":"8885","MEAN_ELEMENT_THEORY":"SGP4","PERIAPSIS":"546.034","ELEMENT_SET_NO":"999","MEAN_ANOMALY":"296.2744","ECCENTRICITY":"0.00017840","MEAN_MOTION_DDOT":"0.0000000000000","EPHEMERIS_TYPE":"0","SEMIMAJOR_AXIS":"6925.404","ARG_OF_PERICENTER":"63.8428","OBJECT_NAME":"STARLINK-1206","EPOCH":"2021-09-17T16:51:15.953472","TIME_SYSTEM":"UTC","RA_OF_ASC_NODE":"161.8669","TLE_LINE2":"2 45204  53.0536 161.8669 0001784  63.8428 296.2744 15.06381879 88858","REF_FRAME":"TEME","SITE":"AFETR","GP_ID":"184910905","CENTER_NAME":"EARTH","CLASSIFICATION_TYPE":"U","MEAN_MOTION":"15.06381879","COUNTRY_CODE":"US","DECAY_DATE":null,"NORAD_CAT_ID":"45204","TLE_LINE1":"1 45204U 20012AC  21260.70226798  .00000760  00000-0  69920-4 0  9995","OBJECT_TYPE":"PAYLOAD","APOAPSIS":"548.505","RCS_SIZE":"LARGE","PERIOD":"95.593","INCLINATION":"53.0536","MEAN_MOTION_DOT":"0.00000760","FILE":"3118116","OBJECT_ID":"2020-012AC","BSTAR":"0.00006992000000","LAUNCH_DATE":"2020-02-17"}];
